CCSDS_OMM_VERS = 2.0
CREATION_DATE  = 
ORIGINATOR     = 

OBJECT_NAME    = 2025-313AJ
OBJECT_ID      = 2025-313AJ
CENTER_NAME    = EARTH
REF_FRAME      = TEME
TIME_SYSTEM    = UTC
MEAN_ELEMENT_THEORY = SGP/SGP4

EPOCH          = 2026-01-13T06:34:40.449792
MEAN_MOTION    = 15.20564712
ECCENTRICITY   = .00137461
INCLINATION    = 97.4177
RA_OF_ASC_NODE = 90.4824
ARG_OF_PERICENTER = 178.5050
MEAN_ANOMALY   = 181.6229

EPHEMERIS_TYPE = 0
CLASSIFICATION_TYPE = U
NORAD_CAT_ID   = 67280
ELEMENT_SET_NO = 999
REV_AT_EPOCH   = 239
BSTAR          = .22986549E-3
MEAN_MOTION_DOT = .4976E-4
MEAN_MOTION_DDOT = 0

CCSDS_OMM_VERS = 2.0
CREATION_DATE  = 
ORIGINATOR     = 

OBJECT_NAME    = 2025-313AK
OBJECT_ID      = 2025-313AK
CENTER_NAME    = EARTH
REF_FRAME      = TEME
TIME_SYSTEM    = UTC
MEAN_ELEMENT_THEORY = SGP/SGP4

EPOCH          = 2026-01-13T06:33:19.816128
MEAN_MOTION    = 15.20656158
ECCENTRICITY   = .00124657
INCLINATION    = 97.4061
RA_OF_ASC_NODE = 90.4705
ARG_OF_PERICENTER = 177.2290
MEAN_ANOMALY   = 182.9017

EPHEMERIS_TYPE = 0
CLASSIFICATION_TYPE = U
NORAD_CAT_ID   = 67281
ELEMENT_SET_NO = 999
REV_AT_EPOCH   = 239
BSTAR          = .2314641E-3
MEAN_MOTION_DOT = .5022E-4
MEAN_MOTION_DDOT = 0

CCSDS_OMM_VERS = 2.0
CREATION_DATE  = 
ORIGINATOR     = 

OBJECT_NAME    = 2025-313AL
OBJECT_ID      = 2025-313AL
CENTER_NAME    = EARTH
REF_FRAME      = TEME
TIME_SYSTEM    = UTC
MEAN_ELEMENT_THEORY = SGP/SGP4

EPOCH          = 2026-01-13T06:27:56.366496
MEAN_MOTION    = 15.21034184
ECCENTRICITY   = .00112433
INCLINATION    = 97.4110
RA_OF_ASC_NODE = 90.4735
ARG_OF_PERICENTER = 176.1099
MEAN_ANOMALY   = 184.0226

EPHEMERIS_TYPE = 0
CLASSIFICATION_TYPE = U
NORAD_CAT_ID   = 67282
ELEMENT_SET_NO = 999
REV_AT_EPOCH   = 239
BSTAR          = .23119404E-3
MEAN_MOTION_DOT = .5071E-4
MEAN_MOTION_DDOT = 0

CCSDS_OMM_VERS = 2.0
CREATION_DATE  = 
ORIGINATOR     = 

OBJECT_NAME    = 2025-313AM
OBJECT_ID      = 2025-313AM
CENTER_NAME    = EARTH
REF_FRAME      = TEME
TIME_SYSTEM    = UTC
MEAN_ELEMENT_THEORY = SGP/SGP4

EPOCH          = 2026-01-13T06:26:59.554176
MEAN_MOTION    = 15.21160102
ECCENTRICITY   = .00111428
INCLINATION    = 97.4118
RA_OF_ASC_NODE = 90.4764
ARG_OF_PERICENTER = 176.0343
MEAN_ANOMALY   = 184.0983

EPHEMERIS_TYPE = 0
CLASSIFICATION_TYPE = U
NORAD_CAT_ID   = 67283
ELEMENT_SET_NO = 999
REV_AT_EPOCH   = 239
BSTAR          = .35612553E-3
MEAN_MOTION_DOT = .788E-4
MEAN_MOTION_DDOT = 0

CCSDS_OMM_VERS = 2.0
CREATION_DATE  = 
ORIGINATOR     = 

OBJECT_NAME    = 2025-313AN
OBJECT_ID      = 2025-313AN
CENTER_NAME    = EARTH
REF_FRAME      = TEME
TIME_SYSTEM    = UTC
MEAN_ELEMENT_THEORY = SGP/SGP4

EPOCH          = 2026-01-13T06:28:01.145280
MEAN_MOTION    = 15.20986505
ECCENTRICITY   = .00111108
INCLINATION    = 97.4102
RA_OF_ASC_NODE = 90.4718
ARG_OF_PERICENTER = 176.0258
MEAN_ANOMALY   = 184.1068

EPHEMERIS_TYPE = 0
CLASSIFICATION_TYPE = U
NORAD_CAT_ID   = 67284
ELEMENT_SET_NO = 999
REV_AT_EPOCH   = 239
BSTAR          = .15049633E-3
MEAN_MOTION_DOT = .3271E-4
MEAN_MOTION_DDOT = 0

CCSDS_OMM_VERS = 2.0
CREATION_DATE  = 
ORIGINATOR     = 

OBJECT_NAME    = NASBSAT-2
OBJECT_ID      = 2025-313AP
CENTER_NAME    = EARTH
REF_FRAME      = TEME
TIME_SYSTEM    = UTC
MEAN_ELEMENT_THEORY = SGP/SGP4

EPOCH          = 2026-01-13T06:25:56.467488
MEAN_MOTION    = 15.21219615
ECCENTRICITY   = .00107546
INCLINATION    = 97.4095
RA_OF_ASC_NODE = 90.4718
ARG_OF_PERICENTER = 177.4077
MEAN_ANOMALY   = 182.7217

EPHEMERIS_TYPE = 0
CLASSIFICATION_TYPE = U
NORAD_CAT_ID   = 67285
ELEMENT_SET_NO = 999
REV_AT_EPOCH   = 239
BSTAR          = .31567587E-3
MEAN_MOTION_DOT = .6987E-4
MEAN_MOTION_DDOT = 0

CCSDS_OMM_VERS = 2.0
CREATION_DATE  = 
ORIGINATOR     = 

OBJECT_NAME    = 2025-313AQ
OBJECT_ID      = 2025-313AQ
CENTER_NAME    = EARTH
REF_FRAME      = TEME
TIME_SYSTEM    = UTC
MEAN_ELEMENT_THEORY = SGP/SGP4

EPOCH          = 2026-01-13T06:25:12.461376
MEAN_MOTION    = 15.21251313
ECCENTRICITY   = .0010459
INCLINATION    = 97.4117
RA_OF_ASC_NODE = 90.4856
ARG_OF_PERICENTER = 173.5133
MEAN_ANOMALY   = 186.6240

EPHEMERIS_TYPE = 0
CLASSIFICATION_TYPE = U
NORAD_CAT_ID   = 67286
ELEMENT_SET_NO = 999
REV_AT_EPOCH   = 239
BSTAR          = .28172817E-3
MEAN_MOTION_DOT = .6233E-4
MEAN_MOTION_DDOT = 0

CCSDS_OMM_VERS = 2.0
CREATION_DATE  = 
ORIGINATOR     = 

OBJECT_NAME    = LUCA
OBJECT_ID      = 2025-313AR
CENTER_NAME    = EARTH
REF_FRAME      = TEME
TIME_SYSTEM    = UTC
MEAN_ELEMENT_THEORY = SGP/SGP4

EPOCH          = 2026-01-13T06:24:29.715840
MEAN_MOTION    = 15.21336661
ECCENTRICITY   = .00103605
INCLINATION    = 97.4117
RA_OF_ASC_NODE = 90.4866
ARG_OF_PERICENTER = 174.0512
MEAN_ANOMALY   = 186.0849

EPHEMERIS_TYPE = 0
CLASSIFICATION_TYPE = U
NORAD_CAT_ID   = 67287
ELEMENT_SET_NO = 999
REV_AT_EPOCH   = 239
BSTAR          = .35727438E-3
MEAN_MOTION_DOT = .7945E-4
MEAN_MOTION_DDOT = 0

CCSDS_OMM_VERS = 2.0
CREATION_DATE  = 
ORIGINATOR     = 

OBJECT_NAME    = 2025-313AS
OBJECT_ID      = 2025-313AS
CENTER_NAME    = EARTH
REF_FRAME      = TEME
TIME_SYSTEM    = UTC
MEAN_ELEMENT_THEORY = SGP/SGP4

EPOCH          = 2026-01-13T06:25:25.729824
MEAN_MOTION    = 15.21203726
ECCENTRICITY   = .00122169
INCLINATION    = 97.4104
RA_OF_ASC_NODE = 90.4823
ARG_OF_PERICENTER = 166.8759
MEAN_ANOMALY   = 193.2797

EPHEMERIS_TYPE = 0
CLASSIFICATION_TYPE = U
NORAD_CAT_ID   = 67288
ELEMENT_SET_NO = 999
REV_AT_EPOCH   = 239
BSTAR          = .22843717E-3
MEAN_MOTION_DOT = .5036E-4
MEAN_MOTION_DDOT = 0

CCSDS_OMM_VERS = 2.0
CREATION_DATE  = 
ORIGINATOR     = 

OBJECT_NAME    = NASBSAT-1
OBJECT_ID      = 2025-313AT
CENTER_NAME    = EARTH
REF_FRAME      = TEME
TIME_SYSTEM    = UTC
MEAN_ELEMENT_THEORY = SGP/SGP4

EPOCH          = 2026-01-13T06:23:15.789408
MEAN_MOTION    = 15.21483943
ECCENTRICITY   = .001027
INCLINATION    = 97.4118
RA_OF_ASC_NODE = 90.4882
ARG_OF_PERICENTER = 174.3712
MEAN_ANOMALY   = 185.7641

EPHEMERIS_TYPE = 0
CLASSIFICATION_TYPE = U
NORAD_CAT_ID   = 67289
ELEMENT_SET_NO = 999
REV_AT_EPOCH   = 239
BSTAR          = .45412241E-3
MEAN_MOTION_DOT = .10164E-3
MEAN_MOTION_DDOT = 0

CCSDS_OMM_VERS = 2.0
CREATION_DATE  = 
ORIGINATOR     = 

OBJECT_NAME    = SAKHACUBE-CHOLBON (RS-18S)
OBJECT_ID      = 2025-313AU
CENTER_NAME    = EARTH
REF_FRAME      = TEME
TIME_SYSTEM    = UTC
MEAN_ELEMENT_THEORY = SGP/SGP4

EPOCH          = 2026-01-13T06:23:22.919136
MEAN_MOTION    = 15.21424739
ECCENTRICITY   = .00101073
INCLINATION    = 97.4117
RA_OF_ASC_NODE = 90.4879
ARG_OF_PERICENTER = 173.3443
MEAN_ANOMALY   = 186.7929

EPHEMERIS_TYPE = 0
CLASSIFICATION_TYPE = U
NORAD_CAT_ID   = 67290
ELEMENT_SET_NO = 999
REV_AT_EPOCH   = 239
BSTAR          = .37984437E-3
MEAN_MOTION_DOT = .8473E-4
MEAN_MOTION_DDOT = 0

CCSDS_OMM_VERS = 2.0
CREATION_DATE  = 
ORIGINATOR     = 

OBJECT_NAME    = QMR-KWT-2
OBJECT_ID      = 2025-313AV
CENTER_NAME    = EARTH
REF_FRAME      = TEME
TIME_SYSTEM    = UTC
MEAN_ELEMENT_THEORY = SGP/SGP4

EPOCH          = 2026-01-13T06:22:50.672064
MEAN_MOTION    = 15.21482832
ECCENTRICITY   = .00100003
INCLINATION    = 97.4117
RA_OF_ASC_NODE = 90.4883
ARG_OF_PERICENTER = 173.2667
MEAN_ANOMALY   = 186.8705

EPHEMERIS_TYPE = 0
CLASSIFICATION_TYPE = U
NORAD_CAT_ID   = 67291
ELEMENT_SET_NO = 999
REV_AT_EPOCH   = 239
BSTAR          = .40459143E-3
MEAN_MOTION_DOT = .9045E-4
MEAN_MOTION_DDOT = 0

