2025-313AJ              
1 67280U 25313AJ  26013.27407928  .00004976  00000+0  22987-3 0  9994
2 67280  97.4177  90.4824 0013746 178.5050 181.6229 15.20564712  2390
2025-313AK              
1 67281U 25313AK  26013.27314602  .00005022  00000+0  23146-3 0  9992
2 67281  97.4061  90.4705 0012465 177.2290 182.9017 15.20656158  2395
2025-313AL              
1 67282U 25313AL  26013.26940239  .00005071  00000+0  23119-3 0  9997
2 67282  97.4110  90.4735 0011243 176.1099 184.0226 15.21034184  2397
2025-313AM              
1 67283U 25313AM  26013.26874484  .00007880  00000+0  35613-3 0  9998
2 67283  97.4118  90.4764 0011142 176.0343 184.0983 15.21160102  2397
2025-313AN              
1 67284U 25313AN  26013.26945770  .00003271  00000+0  15050-3 0  9999
2 67284  97.4102  90.4718 0011110 176.0258 184.1068 15.20986505  2397
NASBSAT-2               
1 67285U 25313AP  26013.26801467  .00006987  00000+0  31568-3 0  9993
2 67285  97.4095  90.4718 0010754 177.4077 182.7217 15.21219615  2398
2025-313AQ              
1 67286U 25313AQ  26013.26750534  .00006233  00000+0  28173-3 0  9994
2 67286  97.4117  90.4856 0010459 173.5133 186.6240 15.21251313  2399
LUCA                    
1 67287U 25313AR  26013.26701060  .00007945  00000+0  35727-3 0  9999
2 67287  97.4117  90.4866 0010360 174.0512 186.0849 15.21336661  2398
2025-313AS              
1 67288U 25313AS  26013.26765891  .00005036  00000+0  22844-3 0  9997
2 67288  97.4104  90.4823 0012216 166.8759 193.2797 15.21203726  2399
NASBSAT-1               
1 67289U 25313AT  26013.26615497  .00010164  00000+0  45412-3 0  9998
2 67289  97.4118  90.4882 0010270 174.3712 185.7641 15.21483943  2396
SAKHACUBE-CHOLBON (RS-*)
1 67290U 25313AU  26013.26623749  .00008473  00000+0  37984-3 0  9994
2 67290  97.4117  90.4879 0010107 173.3443 186.7929 15.21424739  2390
2025-313AV              
1 67291U 25313AV  26013.26586426  .00009045  00000+0  40459-3 0  9992
2 67291  97.4117  90.4883 0010000 173.2667 186.8705 15.21482832  2396
